[{"OBJECT_NAME":"JINJUSAT-1B","OBJECT_ID":"2025-052A","EPOCH":"2026-03-09T15:55:38.242848","MEAN_MOTION":15.30194857,"ECCENTRICITY":0.00055504,"INCLINATION":97.4113,"RA_OF_ASC_NODE":325.4613,"ARG_OF_PERICENTER":82.193,"MEAN_ANOMALY":277.9941,"EPHEMERIS_TYPE":0,"CLASSIFICATION_TYPE":"U","NORAD_CAT_ID":63210,"ELEMENT_SET_NO":999,"REV_AT_EPOCH":5486,"BSTAR":0.00068430401,"MEAN_MOTION_DOT":0.00019955,"MEAN_MOTION_DDOT":0},{"OBJECT_NAME":"STARLINK-36499","OBJECT_ID":"2026-003AB","EPOCH":"2026-03-09T10:59:54.273120","MEAN_MOTION":15.27616462,"ECCENTRICITY":0.00019271,"INCLINATION":42.9994,"RA_OF_ASC_NODE":228.7861,"ARG_OF_PERICENTER":278.624,"MEAN_ANOMALY":81.4393,"EPHEMERIS_TYPE":0,"CLASSIFICATION_TYPE":"U","NORAD_CAT_ID":67359,"ELEMENT_SET_NO":999,"REV_AT_EPOCH":878,"BSTAR":0.0009206871,"MEAN_MOTION_DOT":0.00025188,"MEAN_MOTION_DDOT":0}]
